[{"OBJECT_NAME":"YAOGAN-43 02D","OBJECT_ID":"2024-156D","EPOCH":"2026-03-09T13:08:17.964960","MEAN_MOTION":15.23237701,"ECCENTRICITY":0.000368,"INCLINATION":34.992,"RA_OF_ASC_NODE":104.6408,"ARG_OF_PERICENTER":78.2879,"MEAN_ANOMALY":281.8248,"EPHEMERIS_TYPE":0,"CLASSIFICATION_TYPE":"U","NORAD_CAT_ID":60948,"ELEMENT_SET_NO":999,"REV_AT_EPOCH":8424,"BSTAR":0.00047394,"MEAN_MOTION_DOT":0.0001148,"MEAN_MOTION_DDOT":0},{"OBJECT_NAME":"ZORKIY-2M-VPE","OBJECT_ID":"2025-313E","EPOCH":"2026-03-09T22:36:53.941536","MEAN_MOTION":15.22760121,"ECCENTRICITY":0.0009586,"INCLINATION":97.4008,"RA_OF_ASC_NODE":145.3388,"ARG_OF_PERICENTER":340.9586,"MEAN_ANOMALY":19.1291,"EPHEMERIS_TYPE":0,"CLASSIFICATION_TYPE":"U","NORAD_CAT_ID":67252,"ELEMENT_SET_NO":999,"REV_AT_EPOCH":1086,"BSTAR":0.00040752318,"MEAN_MOTION_DOT":9.461e-5,"MEAN_MOTION_DDOT":0}]
